NORAD_CAT_ID,OBJECT_NAME,OBJECT_TYPE,EPOCH,MEAN_MOTION,ECCENTRICITY,INCLINATION,RA_OF_ASC_NODE,ARG_OF_PERICENTER,MEAN_ANOMALY,BSTAR,MEAN_MOTION_DOT,MEAN_MOTION_DDOT,TLE_LINE0,TLE_LINE1,TLE_LINE2,SEMIMAJOR_AXIS,PERIOD,APOGEE,PERIGEE,DECAYED
54804.0,STARLINK-5422,PAYLOAD,2024-01-23 22:58:02,15.08850936,0.0001429,53.2162,271.2804,83.6639,276.4516,7.3919e-05,8.89e-06,0.0,0 STARLINK-5422,1 54804U 22175AY  24023.95697077  .00000889  00000-0  73919-4 0  9997,2 54804  53.2162 271.2804 0001429  83.6639 276.4516 15.08850936 63024,6917.847,95.437,540.701,538.723,0.0
54804.0,STARLINK-5422,PAYLOAD,2024-01-24 19:38:03,15.08841897,0.0001635,53.2168,267.4128,109.6597,250.4571,-7.1126e-06,-4.01e-06,0.0,0 STARLINK-5422,1 54804U 22175AY  24024.81809856 -.00000401  00000-0 -71126-5 0  9994,2 54804  53.2168 267.4128 0001635 109.6597 250.4571 15.08841897 60999,6917.875,95.437,540.871,538.609,0.0
54804.0,STARLINK-5422,PAYLOAD,2024-01-24 21:13:26,15.08840133,0.0001628,53.2171,267.1154,113.8243,246.292,-1.1902e-05,-4.77e-06,0.0,0 STARLINK-5422,1 54804U 22175AY  24024.88433916 -.00000477  00000-0 -11902-4 0  9999,2 54804  53.2171 267.1154 0001628 113.8243 246.2920 15.08840133 63161,6917.88,95.438,540.871,538.619,0.0
54804.0,STARLINK-5422,PAYLOAD,2024-01-25 19:28:51,15.08839231,0.0001407,53.2167,262.9526,106.3891,253.7256,-4.4074e-05,-9.89e-06,0.0,0 STARLINK-5422,1 54804U 22175AY  24025.81170259 -.00000989  00000-0 -44074-4 0  9995,2 54804  53.2167 262.9526 0001407 106.3891 253.7256 15.08839231 61141,6917.883,95.438,540.721,538.774,0.0
54804.0,STARLINK-5422,PAYLOAD,2024-01-25 22:39:37,15.08842598,0.0001552,53.2168,262.3586,108.8071,251.309,-1.1871e-05,-4.77e-06,0.0,0 STARLINK-5422,1 54804U 22175AY  24025.94417932 -.00000477  00000-0 -11871-4 0  9992,2 54804  53.2168 262.3586 0001552 108.8071 251.3090 15.08842598 63322,6917.872,95.437,540.811,538.664,0.0
54804.0,STARLINK-5422,PAYLOAD,2024-01-26 20:55:00,15.08841368,0.0001524,53.2167,258.1971,106.3441,253.7719,0.00015801,2.228e-05,0.0,0 STARLINK-5422,1 54804U 22175AY  24026.87153677  .00002228  00000-0  15801-3 0  9998,2 54804  53.2167 258.1971 0001524 106.3441 253.7719 15.08841368 61309,6917.876,95.437,540.795,538.687,0.0
54804.0,STARLINK-5422,PAYLOAD,2024-01-27 14:24:15,15.08845568,0.0001432,53.216,254.9253,108.7508,251.3639,2.5103e-05,1.12e-06,0.0,0 STARLINK-5422,1 54804U 22175AY  24027.60017954  .00000112  00000-0  25103-4 0  9994,2 54804  53.2160 254.9253 0001432 108.7508 251.3639 15.08845568 63579,6917.863,95.437,540.719,538.738,0.0
54804.0,STARLINK-5422,PAYLOAD,2024-01-27 19:10:25,15.08840111,0.0001429,53.216,254.0314,105.659,254.456,2.7821e-05,1.55e-06,0.0,0 STARLINK-5422,1 54804U 22175AY  24027.79890254  .00000155  00000-0  27821-4 0  9992,2 54804  53.2160 254.0314 0001429 105.6590 254.4560 15.08840111 61441,6917.88,95.438,540.734,538.756,0.0
54804.0,STARLINK-5422,PAYLOAD,2024-01-27 22:21:11,15.0883951,0.000133,53.2157,253.4369,100.2478,259.8664,1.0727e-05,-1.17e-06,0.0,0 STARLINK-5422,1 54804U 22175AY  24027.93138273 -.00000117  00000-0  10727-4 0  9990,2 54804  53.2157 253.4369 0001330 100.2478 259.8664 15.08839510 63624,6917.882,95.438,540.667,538.827,0.0
54804.0,STARLINK-5422,PAYLOAD,2024-01-27 23:56:34,15.08839242,0.0001272,53.2154,253.1396,93.1291,266.9846,1.7712e-06,-2.6e-06,0.0,0 STARLINK-5422,1 54804U 22175AY  24027.99762332 -.00000260  00000-0  17712-5 0  9996,2 54804  53.2154 253.1396 0001272  93.1291 266.9846 15.08839242 63630,6917.883,95.438,540.628,538.868,0.0
54804.0,STARLINK-5422,PAYLOAD,2024-01-28 19:01:12,15.08836255,0.0001287,53.2153,249.5711,95.0664,265.0475,-2.7992e-05,-7.33e-06,0.0,0 STARLINK-5422,1 54804U 22175AY  24028.79250753 -.00000733  00000-0 -27992-4 0  9990,2 54804  53.2153 249.5711 0001287  95.0664 265.0475 15.08836255 61592,6917.892,95.438,540.647,538.867,0.0
54804.0,STARLINK-5422,PAYLOAD,2024-01-28 22:11:58,15.08838419,0.0001326,53.2157,248.9769,93.5345,266.5799,-1.2084e-05,-4.8e-06,0.0,0 STARLINK-5422,1 54804U 22175AY  24028.92498604 -.00000480  00000-0 -12084-4 0  9999,2 54804  53.2157 248.9769 0001326  93.5345 266.5799 15.08838419 63776,6917.885,95.438,540.668,538.833,0.0
54804.0,STARLINK-5422,PAYLOAD,2024-01-28 23:47:21,15.08838735,0.0001324,53.2156,248.6794,93.5052,266.6091,-9.8328e-06,-4.44e-06,0.0,0 STARLINK-5422,1 54804U 22175AY  24028.99122575 -.00000444  00000-0 -98328-5 0  9993,2 54804  53.2156 248.6794 0001324  93.5052 266.6091 15.08838735 63781,6917.884,95.438,540.665,538.833,0.0
54804.0,STARLINK-5422,PAYLOAD,2024-01-29 23:38:08,15.08845391,0.0001402,53.2161,244.2193,85.0795,275.0358,0.00012547,1.71e-05,0.0,0 STARLINK-5422,1 54804U 22175AY  24029.98481682  .00001710  00000-0  12547-3 0  9992,2 54804  53.2161 244.2193 0001402  85.0795 275.0358 15.08845391 61772,6917.864,95.437,540.699,538.759,0.0
54804.0,STARLINK-5422,PAYLOAD,2024-01-30 18:42:46,15.0884068,0.0001209,53.2165,240.6454,111.4208,248.6913,5.9244e-06,-1.94e-06,0.0,0 STARLINK-5422,1 54804U 22175AY  24030.77970188 -.00000194  00000-0  59244-5 0  9998,2 54804  53.2165 240.6454 0001209 111.4208 248.6913 15.08840680 61896,6917.878,95.438,540.58,538.907,0.0
54804.0,STARLINK-5422,PAYLOAD,2024-01-30 20:18:09,15.08841263,0.0001263,53.2162,240.348,107.6205,252.4926,1.7757e-05,-5e-08,0.0,0 STARLINK-5422,1 54804U 22175AY  24030.84594106 -.00000005  00000-0  17757-4 0  9991,2 54804  53.2162 240.3480 0001263 107.6205 252.4926 15.08841263 64060,6917.877,95.437,540.615,538.868,0.0
54804.0,STARLINK-5422,PAYLOAD,2024-01-30 23:28:55,15.08840128,0.0001267,53.2162,239.7544,102.9752,257.1381,9.4159e-06,-1.38e-06,0.0,0 STARLINK-5422,1 54804U 22175AY  24030.97842222 -.00000138  00000-0  94159-5 0  9999,2 54804  53.2162 239.7544 0001267 102.9752 257.1381 15.08840128 64080,6917.88,95.438,540.621,538.869,0.0
54804.0,STARLINK-5422,PAYLOAD,2024-01-31 23:19:42,15.0884004,0.0001621,53.2173,235.2946,122.5956,237.5193,1.6747e-05,-2.1e-07,0.0,0 STARLINK-5422,1 54804U 22175AY  24031.97202015 -.00000021  00000-0  16747-4 0  9997,2 54804  53.2173 235.2946 0001621 122.5956 237.5193 15.08840040 62070,6917.88,95.438,540.867,538.624,0.0
54804.0,STARLINK-5422,PAYLOAD,2024-02-01 13:38:11,15.08836744,0.0001528,53.2163,232.6209,79.9666,280.1499,1.9899e-05,2.9e-07,0.0,0 STARLINK-5422,1 54804U 22175AY  24032.56818535  .00000029  00000-0  19899-4 0  9991,2 54804  53.2163 232.6209 0001528  79.9666 280.1499 15.08836744 64320,6917.89,95.438,540.812,538.698,0.0
54804.0,STARLINK-5422,PAYLOAD,2024-02-01 18:24:20,15.08836077,0.0001444,53.2163,231.7294,86.4455,273.6703,6.3355e-06,-1.87e-06,0.0,0 STARLINK-5422,1 54804U 22175AY  24032.76690615 -.00000187  00000-0  63355-5 0  9993,2 54804  53.2163 231.7294 0001444  86.4455 273.6703 15.08836077 64357,6917.892,95.438,540.756,538.758,0.0
54804.0,STARLINK-5422,PAYLOAD,2024-02-02 13:28:58,15.08833306,0.0001305,53.2158,228.1614,91.9635,268.1507,4.2484e-05,3.88e-06,0.0,0 STARLINK-5422,1 54804U 22175AY  24033.56178733  .00000388  00000-0  42484-4 0  9995,2 54804  53.2158 228.1614 0001305  91.9635 268.1507 15.08833306 64470,6917.901,95.438,540.669,538.863,0.0
54804.0,STARLINK-5422,PAYLOAD,2024-02-02 18:15:07,15.08833952,0.0001304,53.2158,227.2693,91.9426,268.1715,4.5683e-05,4.39e-06,0.0,0 STARLINK-5422,1 54804U 22175AY  24033.76050752  .00000439  00000-0  45683-4 0  9998,2 54804  53.2158 227.2693 0001304  91.9426 268.1715 15.08833952 64506,6917.899,95.438,540.666,538.862,0.0
54804.0,STARLINK-5422,PAYLOAD,2024-02-03 11:44:22,15.08834576,0.0001303,53.2158,223.9982,91.2796,268.8346,4.29e-05,3.95e-06,0.0,0 STARLINK-5422,1 54804U 22175AY  24034.48915015  .00000395  00000-0  42900-4 0  9990,2 54804  53.2158 223.9982 0001303  91.2796 268.8346 15.08834576 62454,6917.897,95.438,540.663,538.861,0.0
54804.0,STARLINK-5422,PAYLOAD,2024-02-03 19:41:18,15.08836902,0.0001291,53.2158,222.5114,91.964,268.15,4.8176e-05,4.79e-06,0.0,0 STARLINK-5422,1 54804U 22175AY  24034.82034947  .00000479  00000-0  48176-4 0  9998,2 54804  53.2158 222.5114 0001291  91.9640 268.1500 15.08836902 64662,6917.89,95.438,540.648,538.862,0.0
54804.0,STARLINK-5422,PAYLOAD,2024-02-04 11:35:09,15.08838093,0.0001339,53.2162,219.5378,92.7802,267.3343,6.0827e-05,6.8e-06,0.0,0 STARLINK-5422,1 54804U 22175AY  24035.48274971  .00000680  00000-0  60827-4 0  9995,2 54804  53.2162 219.5378 0001339  92.7802 267.3343 15.08838093 64767,6917.886,95.438,540.678,538.825,0.0
54804.0,STARLINK-5422,PAYLOAD,2024-02-04 19:32:05,15.08840254,0.0001322,53.216,218.0509,90.7834,269.331,7.3544e-05,8.83e-06,0.0,0 STARLINK-5422,1 54804U 22175AY  24035.81394840  .00000883  00000-0  73544-4 0  9995,2 54804  53.2160 218.0509 0001322  90.7834 269.3310 15.08840254 62654,6917.88,95.438,540.659,538.83,0.0
54804.0,STARLINK-5422,PAYLOAD,2024-02-05 11:25:56,15.08839413,0.000134,53.2162,215.0771,87.6227,272.4919,4.3295e-05,4.01e-06,0.0,0 STARLINK-5422,1 54804U 22175AY  24036.47635072  .00000401  00000-0  43295-4 0  9999,2 54804  53.2162 215.0771 0001340  87.6227 272.4919 15.08839413 64911,6917.882,95.438,540.674,538.82,0.0
54804.0,STARLINK-5422,PAYLOAD,2024-02-05 17:47:29,15.08839293,0.0001335,53.2162,213.8876,87.1425,272.972,3.7624e-05,3.11e-06,0.0,0 STARLINK-5422,1 54804U 22175AY  24036.74131118  .00000311  00000-0  37624-4 0  9990,2 54804  53.2162 213.8876 0001335  87.1425 272.9720 15.08839293 64957,6917.883,95.438,540.671,538.824,0.0
54804.0,STARLINK-5422,PAYLOAD,2024-02-06 11:16:43,15.0884247,0.0001334,53.2162,210.6166,81.8623,278.2521,4.4333e-05,4.18e-06,0.0,0 STARLINK-5422,1 54804U 22175AY  24037.46994907  .00000418  00000-0  44333-4 0  9996,2 54804  53.2162 210.6166 0001334  81.8623 278.2521 15.08842470 62906,6917.873,95.437,540.661,538.815,0.0
54804.0,STARLINK-5422,PAYLOAD,2024-02-06 17:38:15,15.0884503,0.000134,53.2163,209.4276,81.321,278.7934,6.5994e-05,7.63e-06,0.0,0 STARLINK-5422,1 54804U 22175AY  24037.73490602  .00000763  00000-0  65994-4 0  9998,2 54804  53.2163 209.4276 0001340  81.3210 278.7934 15.08845030 65102,6917.865,95.437,540.657,538.803,0.0
